GPS BIIA-23 (PRN 18)    
1 22877U 93068A   18221.68673104 -.00000021  00000-0  00000+0 0  9994
2 22877  54.4618  81.3079 0146568  76.1674  73.0309  2.00567758181625
GPS BIIR-2  (PRN 13)    
1 24876U 97035A   18221.37449716  .00000061  00000-0  00000+0 0  9992
2 24876  55.4856 210.6805 0030730  85.9429 274.4094  2.00564456154219
GPS BIIR-3  (PRN 11)    
1 25933U 99055A   18221.17940615 -.00000036  00000-0  00000+0 0  9996
2 25933  51.9246  59.3812 0167988 103.0561  42.6010  2.00565876138020
GPS BIIR-4  (PRN 20)    
1 26360U 00025A   18221.63394266 -.00000027  00000-0  00000+0 0  9996
2 26360  53.2161 137.4382 0039080 120.1237  40.6081  2.00563180133721
GPS BIIR-5  (PRN 28)    
1 26407U 00040A   18221.53739488 -.00000064  00000-0  00000+0 0  9994
2 26407  56.4508 328.8107 0197357 272.9831 156.1179  2.00562599132400
GPS BIIR-6  (PRN 14)    
1 26605U 00071A   18221.74481848  .00000052  00000-0  00000+0 0  9991
2 26605  55.0589 208.2365 0102878 249.0659 236.0875  2.00570334130009
GPS BIIR-8  (PRN 16)    
1 27663U 03005A   18220.86231272 -.00000064  00000-0  00000+0 0  9996
2 27663  56.5149 328.5971 0098579  28.8915  32.9168  2.00563649113753
GPS BIIR-9  (PRN 21)    
1 27704U 03010A   18221.71180642 -.00000022  00000-0  00000+0 0  9991
2 27704  54.1330  80.8758 0245427 271.9275   2.7155  2.00565684112573
GPS BIIR-10 (PRN 22)    
1 28129U 03058A   18221.07060008 -.00000027  00000-0  00000+0 0  9992
2 28129  53.0291 140.3064 0074305 274.0486  85.1040  2.00554438107256
GPS BIIR-11 (PRN 19)    
1 28190U 04009A   18221.57429355 -.00000053  00000-0  00000+0 0  9995
2 28190  56.1926  29.4000 0095860  71.3310 290.9024  2.00558340105446
GPS BIIR-12 (PRN 23)    
1 28361U 04023A   18221.17714456  .00000051  00000-0  00000+0 0  9993
2 28361  54.0612 202.9459 0128296 226.8742 125.0962  2.00553825103515
GPS BIIR-13 (PRN 02)    
1 28474U 04045A   18221.65306288 -.00000021  00000-0  00000+0 0  9993
2 28474  54.5000  80.5126 0181672 254.7759  79.9719  2.00549866100897
GPS BIIRM-1 (PRN 17)    
1 28874U 05038A   18220.58370470 -.00000049  00000-0  00000+0 0  9995
2 28874  56.3310  26.7554 0126653 258.3094 133.3923  2.00573025 94272
GPS BIIRM-2 (PRN 31)    
1 29486U 06042A   18221.68712711  .00000050  00000-0  00000+0 0  9992
2 29486  55.1509 265.5247 0088330 351.4917  40.0393  2.00558756 87012
GPS BIIRM-3 (PRN 12)    
1 29601U 06052A   18221.08497404 -.00000063  00000-0  00000+0 0  9990
2 29601  56.4911 327.5050 0069038  56.9017 303.7812  2.00578919 85910
GPS BIIRM-4 (PRN 15)    
1 32260U 07047A   18221.41074028  .00000040  00000-0  00000+0 0  9994
2 32260  53.1854 198.9107 0103259  38.7629 321.9526  2.00549208 79308
GPS BIIRM-5 (PRN 29)    
1 32384U 07062A   18221.56607278 -.00000054  00000-0  00000+0 0  9999
2 32384  56.4066  27.3302 0006068  83.0839 165.9695  2.00566579 78036
GPS BIIRM-6 (PRN 07)    
1 32711U 08012A   18220.81945836  .00000055  00000-0  00000+0 0  9991
2 32711  54.8860 264.8253 0121302 217.3669 141.8670  2.00566389 76201
GPS BIIRM-8 (PRN 05)    
1 35752U 09043A   18221.64614653 -.00000024  00000-0  00000+0 0  9993
2 35752  54.3317 142.5436 0054153  35.4168 229.5574  2.00553122 65800
GPS BIIF-1  (PRN 25)    
1 36585U 10022A   18221.73467718 -.00000059  00000-0  00000+0 0  9993
2 36585  55.7794 324.0032 0072729  48.7220  25.4383  2.00571229 60054
GPS BIIF-2  (PRN 01)    
1 37753U 11036A   18221.68850222 -.00000017  00000-0  00000+0 0  9991
2 37753  55.6986  84.1021 0079128  37.3622  89.1281  2.00564499 51736
GPS BIIF-3  (PRN 24)    
1 38833U 12053A   18221.49827936  .00000054  00000-0  00000+0 0  9996
2 38833  53.9167 261.3026 0069613  28.9991 331.4688  2.00567656 42805
GPS BIIF-4  (PRN 27)    
1 39166U 13023A   18221.35785793 -.00000058  00000-0  00000+0 0  9998
2 39166  56.0264  23.6041 0059214  24.1307 336.1654  2.00561967 38335
GPS BIIF-5  (PRN 30)    
1 39533U 14008A   18221.35795927  .00000047  00000-0  00000+0 0  9997
2 39533  54.0591 266.6659 0036513 191.6078 168.3922  2.00559579 32692
GPS BIIF-6  (PRN 06)    
1 39741U 14026A   18221.63533103 -.00000017  00000-0  00000+0 0  9993
2 39741  55.6816  83.6273 0012106 293.9349  66.0231  2.00563209 30980
GPS BIIF-7  (PRN 09)    
1 40105U 14045A   18221.22615094  .00000051  00000-0  00000+0 0  9992
2 40105  54.5873 203.0771 0006972 107.5733 252.4913  2.00575429 29421
GPS BIIF-8  (PRN 03)    
1 40294U 14068A   18221.60088009 -.00000022  00000-0  00000+0 0  9997
2 40294  55.0831 143.8541 0015158  23.7981 336.2685  2.00559873 27651
GPS BIIF-9  (PRN 26)    
1 40534U 15013A   18221.23652535 -.00000059  00000-0  00000+0 0  9995
2 40534  54.7189 322.6893 0028022   0.5617 359.4722  2.00560387 24715
GPS BIIF-10  (PRN 08)   
1 40730U 15033A   18220.89932345 -.00000056  00000-0  00000+0 0  9993
2 40730  55.5559  23.1042 0035583 333.6948  26.1459  2.00571548 22465
GPS BIIF-11  (PRN 10)   
1 41019U 15062A   18221.44919291 -.00000023  00000-0  00000+0 0  9997
2 41019  55.0875 143.6646 0037694 204.3375 155.4816  2.00564362 20291
GPS BIIF-12  (PRN 32)   
1 41328U 16007A   18221.53716362  .00000048  00000-0  00000+0 0  9990
2 41328  54.8368 203.3695 0024379 219.7636 140.0445  2.00561076 18353
